H1 CPF 01  gfz 2022 05 21 12  6412 terrasarx 
H2 0702601  6201 31698    2022 05 21 12 59 42 2022 05 26 00 00 42   120 1 1  0 0 0
H9
10 0 59723  69102.000000  0     344543.606  -1040606.159   6789962.545
10 0 59723  69222.000000  0    -532906.133   -763797.869   6814448.056
10 0 59723  69342.000000  0   -1395963.625   -458433.514   6719205.644
10 0 59723  69462.000000  0   -2229121.045   -130227.419   6505896.179
10 0 59723  69582.000000  0   -3017489.986    214440.819   6178242.291
10 0 59723  69702.000000  0   -3747068.242    568648.923   5741968.510
10 0 59723  69822.000000  0   -4404992.195    925068.679   5204707.465
10 0 59723  69942.000000  0   -4979769.468   1276115.047   4575872.368
10 0 59723  70062.000000  0   -5461487.726   1614105.255   3866497.107
10 0 59723  70182.000000  0   -5841993.913   1931423.861   3089045.405
10 0 59723  70302.000000  0   -6115040.856   2220690.546   2257193.097
10 0 59723  70422.000000  0   -6276398.346   2474926.781   1385586.075
10 0 59723  70542.000000  0   -6323924.977   2687717.644    489576.945
10 0 59723  70662.000000  0   -6257596.865   2853363.661   -415053.419
10 0 59723  70782.000000  0   -6079493.968   2967018.957  -1312382.615
10 0 59723  70902.000000  0   -5793743.769   3024812.242  -2186635.752
10 0 59723  71022.000000  0   -5406423.695   3023948.040  -3022471.374
10 0 59723  71142.000000  0   -4925424.491   2962784.311  -3805255.818
10 0 59723  71262.000000  0   -4360280.155   2840886.027  -4521320.735
10 0 59723  71382.000000  0   -3721968.980   2659053.391  -5158198.737
10 0 59723  71502.000000  0   -3022691.429   2419324.654  -5704832.983
10 0 59723  71622.000000  0   -2275631.856   2124955.021  -6151759.276
10 0 59723  71742.000000  0   -1494706.119   1780371.249  -6491260.044
10 0 59723  71862.000000  0    -694301.771   1391102.995  -6717485.011
10 0 59723  71982.000000  0     110983.339    963693.375  -6826541.604
10 0 59723  72102.000000  0     906600.687    505590.320  -6816554.286
10 0 59723  72222.000000  0    1678308.121     25019.531  -6687695.424
10 0 59723  72342.000000  0    2412419.618   -469160.082  -6442181.538
10 0 59723  72462.000000  0    3096042.749   -967615.144  -6084239.660
10 0 59723  72582.000000  0    3717302.803  -1460709.271  -5620041.570
10 0 59723  72702.000000  0    4265548.995  -1938684.558  -5057608.469
10 0 59723  72822.000000  0    4731541.643  -2391852.630  -4406683.924
10 0 59723  72942.000000  0    5107614.148  -2810789.576  -3678575.438
10 0 59723  73062.000000  0    5387807.687  -3186531.161  -2885967.282
10 0 59723  73182.000000  0    5567975.681  -3510764.346  -2042705.214
10 0 59723  73302.000000  0    5645853.411  -3776010.306  -1163556.504
10 0 59723  73422.000000  0    5621091.472  -3975795.109   -263950.063
10 0 59723  73542.000000  0    5495251.221  -4104802.700    640299.273
10 0 59723  73662.000000  0    5271761.433  -4159006.957   1533276.513
10 0 59723  73782.000000  0    4955836.228  -4135777.837   2399256.263
10 0 59723  73902.000000  0    4554356.721  -4033957.598   3222988.189
10 0 59723  74022.000000  0    4075720.844  -3853907.553   3989971.980
10 0 59723  74142.000000  0    3529664.847  -3597524.461   4686717.824
10 0 59723  74262.000000  0    2927058.928  -3268224.631   5300986.083
10 0 59723  74382.000000  0    2279685.577  -2870896.843   5822000.786
10 0 59723  74502.000000  0    1600003.971  -2411826.101   6240635.459
10 0 59723  74622.000000  0     900906.097  -1898590.393   6549566.863
10 0 59723  74742.000000  0     195470.057  -1339932.483   6743396.994
10 0 59723  74862.000000  0    -503285.036   -745608.773   6818741.733
10 0 59723  74982.000000  0   -1182638.400   -126217.792   6774285.581
10 0 59723  75102.000000  0   -1830398.086    506988.423   6610803.142
10 0 59723  75222.000000  0   -2435119.014   1142308.096   6331146.556
10 0 59723  75342.000000  0   -2986305.476   1767804.926   5940199.007
10 0 59723  75462.000000  0   -3474594.949   2371531.745   5444795.267
10 0 59723  75582.000000  0   -3891921.202   2941759.885   4853608.969
10 0 59723  75702.000000  0   -4231652.482   3467209.265   4177006.119
10 0 59723  75822.000000  0   -4488702.732   3937274.663   3426867.937
10 0 59723  75942.000000  0   -4659612.838   4342243.652   2616384.125
10 0 59723  76062.000000  0   -4742598.720   4673501.805   1759820.138
10 0 59723  76182.000000  0   -4737565.439   4923718.998    872261.718
10 0 59723  76302.000000  0   -4646087.481   5087010.644    -30657.155
10 0 59723  76422.000000  0   -4471356.129   5159072.381   -933037.371
10 0 59723  76542.000000  0   -4218092.529   5137283.507  -1819005.863
10 0 59723  76662.000000  0   -3892427.919   5020773.910  -2673002.956
10 0 59723  76782.000000  0   -3501759.045   4810456.713  -3480062.427
10 0 59723  76902.000000  0   -3054578.647   4509022.868  -4226076.762
10 0 59723  77022.000000  0   -2560288.339   4120900.996  -4898041.505
10 0 59723  77142.000000  0   -2028998.979   3652185.179  -5484275.378
10 0 59723  77262.000000  0   -1471323.204   3110532.669  -5974615.595
10 0 59723  77382.000000  0    -898163.152   2505031.686  -6360584.650
10 0 59723  77502.000000  0    -320498.580   1846043.755  -6635525.119
10 0 59723  77622.000000  0     250819.872   1145025.029  -6794703.192
10 0 59723  77742.000000  0     805269.234    414328.796  -6835381.937
10 0 59723  77862.000000  0    1332844.091   -333008.259  -6756864.056
10 0 59723  77982.000000  0    1824232.820  -1083494.091  -6560501.066
10 0 59723  78102.000000  0    2270977.709  -1823418.295  -6249672.166
10 0 59723  78222.000000  0    2665618.726  -2539096.222  -5829732.579
10 0 59723  78342.000000  0    3001818.266  -3217117.946  -5307932.557
10 0 59723  78462.000000  0    3274466.067  -3844600.428  -4693303.104
10 0 59723  78582.000000  0    3479759.020  -4409433.335  -3996508.465
10 0 59723  78702.000000  0    3615256.225  -4900515.415  -3229671.819
10 0 59723  78822.000000  0    3679909.682  -5307979.502  -2406173.273
10 0 59723  78942.000000  0    3674066.619  -5623399.435  -1540419.693
10 0 59723  79062.000000  0    3599443.633  -5839971.122   -647592.504
10 0 59723  79182.000000  0    3459072.697  -5952665.139    256622.856
10 0 59723  79302.000000  0    3257218.813  -5958344.507   1156319.121
10 0 59723  79422.000000  0    2999273.572  -5855846.200   2035655.586
10 0 59723  79542.000000  0    2691624.709  -5646020.868   2879147.255
10 0 59723  79662.000000  0    2341505.621  -5331731.758   3671944.618
10 0 59723  79782.000000  0    1956830.316  -4917814.251   4400100.025
10 0 59723  79902.000000  0    1546017.199  -4410996.023   5050816.441
10 0 59723  80022.000000  0    1117806.910  -3819780.210   5612672.714
10 0 59723  80142.000000  0     681076.399  -3154293.770   6075822.669
10 0 59723  80262.000000  0     244654.903  -2426105.505   6432161.335
10 0 59723  80382.000000  0    -182853.298  -1648019.647   6675459.634
10 0 59723  80502.000000  0    -593236.815   -833848.395   6801467.389
10 0 59723  80622.000000  0    -978833.582      1834.798   6807984.167
10 0 59723  80742.000000  0   -1332673.098    843956.559   6694895.180
10 0 59723  80862.000000  0   -1648601.958   1677214.856   6464172.815
10 0 59723  80982.000000  0   -1921391.049   2486356.100   6119844.527
10 0 59723  81102.000000  0   -2146822.830   3256454.555   5667926.825
10 0 59723  81222.000000  0   -2321756.933   3973189.183   5116325.990
10 0 59723  81342.000000  0   -2444174.173   4623114.341   4474706.925
10 0 59723  81462.000000  0   -2513197.146   5193918.933   3754328.989
10 0 59723  81582.000000  0   -2529086.829   5674668.006   2967851.159
10 0 59723  81702.000000  0   -2493214.721   6056020.370   2129109.362
10 0 59723  81822.000000  0   -2408011.613   6330418.003   1252870.761
10 0 59723  81942.000000  0   -2276893.380   6492242.313    354568.576
10 0 59723  82062.000000  0   -2104165.936   6537932.967   -549976.974
10 0 59723  82182.000000  0   -1894911.996   6466066.604  -1444846.444
10 0 59723  82302.000000  0   -1654861.211   6277390.932  -2314313.328
10 0 59723  82422.000000  0   -1390247.174   5974810.627  -3143127.835
10 0 59723  82542.000000  0   -1107657.303   5563333.187  -3916786.179
10 0 59723  82662.000000  0    -813879.056   5049975.179  -4621784.672
10 0 59723  82782.000000  0    -515745.632   4443630.378  -5245851.467
10 0 59723  82902.000000  0    -219984.558   3754905.526  -5778153.638
10 0 59723  83022.000000  0      66927.751   2995925.360  -6209476.850
10 0 59723  83142.000000  0     338901.636   2180111.849  -6532373.505
10 0 59723  83262.000000  0     590357.414   1321944.834  -6741279.526
10 0 59723  83382.000000  0     816335.144    436706.427  -6832601.250
10 0 59723  83502.000000  0    1012588.679   -459787.154  -6804770.354
10 0 59723  83622.000000  0    1175662.669  -1351462.724  -6658266.937
10 0 59723  83742.000000  0    1302951.644  -2222270.344  -6395610.701
10 0 59723  83862.000000  0    1392741.318  -3056464.370  -6021323.367
10 0 59723  83982.000000  0    1444231.116  -3838884.600  -5541860.957
10 0 59723  84102.000000  0    1457536.408  -4555232.372  -4965512.252
10 0 59723  84222.000000  0    1433672.181  -5192333.346  -4302265.867
10 0 59723  84342.000000  0    1374517.025  -5738386.233  -3563648.797
10 0 59723  84462.000000  0    1282757.194  -6183191.229  -2762534.278
10 0 59723  84582.000000  0    1161813.240  -6518351.762  -1912922.842
10 0 59723  84702.000000  0    1015750.108  -6737445.419  -1029699.248
10 0 59723  84822.000000  0     849171.465  -6836158.265   -128369.161
10 0 59723  84942.000000  0     667101.801  -6812378.086    775218.507
10 0 59723  85062.000000  0     474859.208  -6666244.883   1665157.599
10 0 59723  85182.000000  0     277921.810  -6400156.457   2525774.197
10 0 59723  85302.000000  0      81791.312  -6018726.932   3341912.857
10 0 59723  85422.000000  0    -108143.369  -5528698.969   4099210.288
10 0 59723  85542.000000  0    -286738.324  -4938816.253   4784351.118
99
